[{"OBJECT_NAME":"ION SCV-004","OBJECT_ID":"2022-002K","EPOCH":"2026-03-09T16:32:03.244416","MEAN_MOTION":15.29369331,"ECCENTRICITY":0.00072157,"INCLINATION":97.2961,"RA_OF_ASC_NODE":128.2294,"ARG_OF_PERICENTER":1.6783,"MEAN_ANOMALY":358.448,"EPHEMERIS_TYPE":0,"CLASSIFICATION_TYPE":"U","NORAD_CAT_ID":50993,"ELEMENT_SET_NO":999,"REV_AT_EPOCH":23008,"BSTAR":0.00023198467,"MEAN_MOTION_DOT":6.538e-5,"MEAN_MOTION_DDOT":0},{"OBJECT_NAME":"STARLINK-30775","OBJECT_ID":"2023-162X","EPOCH":"2026-03-09T22:00:01.999584","MEAN_MOTION":15.26756765,"ECCENTRICITY":0.00014114,"INCLINATION":42.9997,"RA_OF_ASC_NODE":130.6204,"ARG_OF_PERICENTER":247.4455,"MEAN_ANOMALY":289.7196,"EPHEMERIS_TYPE":0,"CLASSIFICATION_TYPE":"U","NORAD_CAT_ID":58139,"ELEMENT_SET_NO":999,"REV_AT_EPOCH":578,"BSTAR":-0.00038328822,"MEAN_MOTION_DOT":-0.00010532,"MEAN_MOTION_DDOT":0}]
